[{"OBJECT_NAME":"STARLINK-35453","OBJECT_ID":"2025-223AA","EPOCH":"2026-02-05T12:03:16.356960","MEAN_MOTION":15.30237103,"ECCENTRICITY":0.00015519,"INCLINATION":53.159,"RA_OF_ASC_NODE":83.9618,"ARG_OF_PERICENTER":92.2495,"MEAN_ANOMALY":267.8684,"EPHEMERIS_TYPE":0,"CLASSIFICATION_TYPE":"U","NORAD_CAT_ID":65878,"ELEMENT_SET_NO":999,"REV_AT_EPOCH":1927,"BSTAR":0.00116575,"MEAN_MOTION_DOT":0.00034367,"MEAN_MOTION_DDOT":0},{"OBJECT_NAME":"STARLINK-35418","OBJECT_ID":"2025-223AB","EPOCH":"2026-02-06T02:21:54.697536","MEAN_MOTION":15.30216908,"ECCENTRICITY":0.00023353,"INCLINATION":53.1597,"RA_OF_ASC_NODE":81.2827,"ARG_OF_PERICENTER":71.5569,"MEAN_ANOMALY":288.5685,"EPHEMERIS_TYPE":0,"CLASSIFICATION_TYPE":"U","NORAD_CAT_ID":65879,"ELEMENT_SET_NO":999,"REV_AT_EPOCH":1936,"BSTAR":0.001298431,"MEAN_MOTION_DOT":0.00038316,"MEAN_MOTION_DDOT":0},{"OBJECT_NAME":"STARLINK-35445","OBJECT_ID":"2025-223AC","EPOCH":"2026-02-05T10:10:58.814112","MEAN_MOTION":15.30195379,"ECCENTRICITY":0.00011778,"INCLINATION":53.1566,"RA_OF_ASC_NODE":84.1843,"ARG_OF_PERICENTER":290.5212,"MEAN_ANOMALY":69.5662,"EPHEMERIS_TYPE":0,"CLASSIFICATION_TYPE":"U","NORAD_CAT_ID":65880,"ELEMENT_SET_NO":999,"REV_AT_EPOCH":1926,"BSTAR":0.00086425805,"MEAN_MOTION_DOT":0.00025321,"MEAN_MOTION_DDOT":0},{"OBJECT_NAME":"STARLINK-35464","OBJECT_ID":"2025-223AD","EPOCH":"2026-02-05T12:06:18.329184","MEAN_MOTION":15.30223159,"ECCENTRICITY":0.00010973,"INCLINATION":53.1581,"RA_OF_ASC_NODE":83.9738,"ARG_OF_PERICENTER":91.4917,"MEAN_ANOMALY":268.6209,"EPHEMERIS_TYPE":0,"CLASSIFICATION_TYPE":"U","NORAD_CAT_ID":65881,"ELEMENT_SET_NO":999,"REV_AT_EPOCH":1927,"BSTAR":0.0012703463,"MEAN_MOTION_DOT":0.00037482,"MEAN_MOTION_DDOT":0},{"OBJECT_NAME":"STARLINK-35270","OBJECT_ID":"2025-224A","EPOCH":"2026-02-05T19:31:03.099648","MEAN_MOTION":15.30213195,"ECCENTRICITY":0.0001143,"INCLINATION":53.1578,"RA_OF_ASC_NODE":159.4342,"ARG_OF_PERICENTER":80.9463,"MEAN_ANOMALY":279.1667,"EPHEMERIS_TYPE":0,"CLASSIFICATION_TYPE":"U","NORAD_CAT_ID":65882,"ELEMENT_SET_NO":999,"REV_AT_EPOCH":1994,"BSTAR":0.0013668,"MEAN_MOTION_DOT":0.00040359,"MEAN_MOTION_DDOT":0},{"OBJECT_NAME":"STARLINK-35367","OBJECT_ID":"2025-224B","EPOCH":"2026-02-06T07:45:15.208416","MEAN_MOTION":15.30179714,"ECCENTRICITY":6.164e-5,"INCLINATION":53.161,"RA_OF_ASC_NODE":156.9283,"ARG_OF_PERICENTER":71.3148,"MEAN_ANOMALY":288.792,"EPHEMERIS_TYPE":0,"CLASSIFICATION_TYPE":"U","NORAD_CAT_ID":65883,"ELEMENT_SET_NO":999,"REV_AT_EPOCH":2002,"BSTAR":0.0013561017,"MEAN_MOTION_DOT":0.00039996,"MEAN_MOTION_DDOT":0},{"OBJECT_NAME":"STARLINK-35384","OBJECT_ID":"2025-224C","EPOCH":"2026-02-05T18:06:06.894144","MEAN_MOTION":15.30214938,"ECCENTRICITY":0.00012761,"INCLINATION":53.1582,"RA_OF_ASC_NODE":159.7768,"ARG_OF_PERICENTER":94.6884,"MEAN_ANOMALY":265.4263,"EPHEMERIS_TYPE":0,"CLASSIFICATION_TYPE":"U","NORAD_CAT_ID":65884,"ELEMENT_SET_NO":999,"REV_AT_EPOCH":1993,"BSTAR":0.0013772595,"MEAN_MOTION_DOT":0.00040674,"MEAN_MOTION_DDOT":0},{"OBJECT_NAME":"STARLINK-35415","OBJECT_ID":"2025-224D","EPOCH":"2026-02-05T15:55:35.594688","MEAN_MOTION":15.3020769,"ECCENTRICITY":0.0001328,"INCLINATION":53.161,"RA_OF_ASC_NODE":159.9208,"ARG_OF_PERICENTER":57.7624,"MEAN_ANOMALY":302.3505,"EPHEMERIS_TYPE":0,"CLASSIFICATION_TYPE":"U","NORAD_CAT_ID":65885,"ELEMENT_SET_NO":999,"REV_AT_EPOCH":1987,"BSTAR":0.0016277,"MEAN_MOTION_DOT":0.00048174,"MEAN_MOTION_DDOT":0},{"OBJECT_NAME":"STARLINK-35413","OBJECT_ID":"2025-224E","EPOCH":"2026-02-06T07:30:03.328992","MEAN_MOTION":15.30190717,"ECCENTRICITY":9.967e-5,"INCLINATION":53.1611,"RA_OF_ASC_NODE":156.861,"ARG_OF_PERICENTER":99.3368,"MEAN_ANOMALY":260.7745,"EPHEMERIS_TYPE":0,"CLASSIFICATION_TYPE":"U","NORAD_CAT_ID":65886,"ELEMENT_SET_NO":999,"REV_AT_EPOCH":1997,"BSTAR":0.00058805107,"MEAN_MOTION_DOT":0.00017092,"MEAN_MOTION_DDOT":0},{"OBJECT_NAME":"STARLINK-35332","OBJECT_ID":"2025-224F","EPOCH":"2026-02-05T17:09:53.107200","MEAN_MOTION":15.30221031,"ECCENTRICITY":8.11e-5,"INCLINATION":53.1607,"RA_OF_ASC_NODE":159.5322,"ARG_OF_PERICENTER":83.2109,"MEAN_ANOMALY":276.8984,"EPHEMERIS_TYPE":0,"CLASSIFICATION_TYPE":"U","NORAD_CAT_ID":65887,"ELEMENT_SET_NO":999,"REV_AT_EPOCH":1996,"BSTAR":0.0014745,"MEAN_MOTION_DOT":0.00043596,"MEAN_MOTION_DDOT":0},{"OBJECT_NAME":"STARLINK-35362","OBJECT_ID":"2025-224G","EPOCH":"2026-02-05T19:50:48.683904","MEAN_MOTION":15.30205965,"ECCENTRICITY":0.0001835,"INCLINATION":53.158,"RA_OF_ASC_NODE":159.5207,"ARG_OF_PERICENTER":54.8404,"MEAN_ANOMALY":305.2769,"EPHEMERIS_TYPE":0,"CLASSIFICATION_TYPE":"U","NORAD_CAT_ID":65888,"ELEMENT_SET_NO":999,"REV_AT_EPOCH":1994,"BSTAR":0.00061458,"MEAN_MOTION_DOT":0.0001789,"MEAN_MOTION_DDOT":0},{"OBJECT_NAME":"STARLINK-35193","OBJECT_ID":"2025-224H","EPOCH":"2026-02-05T13:48:15.049152","MEAN_MOTION":15.30197529,"ECCENTRICITY":0.00017,"INCLINATION":53.1574,"RA_OF_ASC_NODE":160.7807,"ARG_OF_PERICENTER":149.1113,"MEAN_ANOMALY":210.9988,"EPHEMERIS_TYPE":0,"CLASSIFICATION_TYPE":"U","NORAD_CAT_ID":65889,"ELEMENT_SET_NO":999,"REV_AT_EPOCH":1993,"BSTAR":0.0001646,"MEAN_MOTION_DOT":4.518e-5,"MEAN_MOTION_DDOT":0},{"OBJECT_NAME":"STARLINK-34542","OBJECT_ID":"2025-224J","EPOCH":"2026-02-05T15:17:45.850272","MEAN_MOTION":15.30222398,"ECCENTRICITY":0.0001335,"INCLINATION":53.158,"RA_OF_ASC_NODE":160.4676,"ARG_OF_PERICENTER":76.2809,"MEAN_ANOMALY":283.8341,"EPHEMERIS_TYPE":0,"CLASSIFICATION_TYPE":"U","NORAD_CAT_ID":65890,"ELEMENT_SET_NO":999,"REV_AT_EPOCH":1996,"BSTAR":0.00089439,"MEAN_MOTION_DOT":0.00026242,"MEAN_MOTION_DDOT":0},{"OBJECT_NAME":"STARLINK-34791","OBJECT_ID":"2025-224K","EPOCH":"2026-02-05T17:05:29.458464","MEAN_MOTION":15.30205831,"ECCENTRICITY":8.13e-5,"INCLINATION":53.1581,"RA_OF_ASC_NODE":160.2139,"ARG_OF_PERICENTER":92.5405,"MEAN_ANOMALY":267.5689,"EPHEMERIS_TYPE":0,"CLASSIFICATION_TYPE":"U","NORAD_CAT_ID":65891,"ELEMENT_SET_NO":999,"REV_AT_EPOCH":1997,"BSTAR":0.0012071,"MEAN_MOTION_DOT":0.00035569,"MEAN_MOTION_DDOT":0},{"OBJECT_NAME":"STARLINK-34853","OBJECT_ID":"2025-224L","EPOCH":"2026-02-06T07:54:22.286304","MEAN_MOTION":15.30204121,"ECCENTRICITY":0.00018214,"INCLINATION":53.1601,"RA_OF_ASC_NODE":156.9671,"ARG_OF_PERICENTER":113.8258,"MEAN_ANOMALY":246.2934,"EPHEMERIS_TYPE":0,"CLASSIFICATION_TYPE":"U","NORAD_CAT_ID":65892,"ELEMENT_SET_NO":999,"REV_AT_EPOCH":2000,"BSTAR":0.0013024538,"MEAN_MOTION_DOT":0.00038421,"MEAN_MOTION_DDOT":0},{"OBJECT_NAME":"STARLINK-34921","OBJECT_ID":"2025-224M","EPOCH":"2026-02-05T15:13:12.261216","MEAN_MOTION":15.30211386,"ECCENTRICITY":0.0001388,"INCLINATION":53.1586,"RA_OF_ASC_NODE":160.4396,"ARG_OF_PERICENTER":91.3152,"MEAN_ANOMALY":268.8007,"EPHEMERIS_TYPE":0,"CLASSIFICATION_TYPE":"U","NORAD_CAT_ID":65893,"ELEMENT_SET_NO":999,"REV_AT_EPOCH":1996,"BSTAR":0.0014294,"MEAN_MOTION_DOT":0.00042231,"MEAN_MOTION_DDOT":0},{"OBJECT_NAME":"STARLINK-34672","OBJECT_ID":"2025-224N","EPOCH":"2026-02-05T19:44:43.651680","MEAN_MOTION":15.30211766,"ECCENTRICITY":0.0001482,"INCLINATION":53.1582,"RA_OF_ASC_NODE":159.4847,"ARG_OF_PERICENTER":63.3715,"MEAN_ANOMALY":296.7438,"EPHEMERIS_TYPE":0,"CLASSIFICATION_TYPE":"U","NORAD_CAT_ID":65894,"ELEMENT_SET_NO":999,"REV_AT_EPOCH":1999,"BSTAR":0.0015529,"MEAN_MOTION_DOT":0.00045934,"MEAN_MOTION_DDOT":0},{"OBJECT_NAME":"STARLINK-34898","OBJECT_ID":"2025-224P","EPOCH":"2026-02-05T14:44:19.874688","MEAN_MOTION":15.30221264,"ECCENTRICITY":0.0001237,"INCLINATION":53.1594,"RA_OF_ASC_NODE":160.3131,"ARG_OF_PERICENTER":73.4316,"MEAN_ANOMALY":286.682,"EPHEMERIS_TYPE":0,"CLASSIFICATION_TYPE":"U","NORAD_CAT_ID":65895,"ELEMENT_SET_NO":999,"REV_AT_EPOCH":1996,"BSTAR":0.0015954,"MEAN_MOTION_DOT":0.00047224,"MEAN_MOTION_DDOT":0},{"OBJECT_NAME":"STARLINK-34906","OBJECT_ID":"2025-224Q","EPOCH":"2026-02-05T18:01:33.449376","MEAN_MOTION":15.30206472,"ECCENTRICITY":0.0001481,"INCLINATION":53.1588,"RA_OF_ASC_NODE":159.7466,"ARG_OF_PERICENTER":70.068,"MEAN_ANOMALY":290.048,"EPHEMERIS_TYPE":0,"CLASSIFICATION_TYPE":"U","NORAD_CAT_ID":65896,"ELEMENT_SET_NO":999,"REV_AT_EPOCH":1998,"BSTAR":0.0018738184,"MEAN_MOTION_DOT":0.00055565,"MEAN_MOTION_DDOT":0},{"OBJECT_NAME":"STARLINK-34934","OBJECT_ID":"2025-224R","EPOCH":"2026-02-06T07:40:41.528640","MEAN_MOTION":15.30220301,"ECCENTRICITY":0.00010926,"INCLINATION":53.1607,"RA_OF_ASC_NODE":156.8954,"ARG_OF_PERICENTER":96.5086,"MEAN_ANOMALY":263.6039,"EPHEMERIS_TYPE":0,"CLASSIFICATION_TYPE":"U","NORAD_CAT_ID":65897,"ELEMENT_SET_NO":999,"REV_AT_EPOCH":2002,"BSTAR":0.0015382699,"MEAN_MOTION_DOT":0.00045508,"MEAN_MOTION_DDOT":0},{"OBJECT_NAME":"STARLINK-34936","OBJECT_ID":"2025-224S","EPOCH":"2026-02-06T07:49:45.988608","MEAN_MOTION":15.30242639,"ECCENTRICITY":0.00015449,"INCLINATION":53.1588,"RA_OF_ASC_NODE":156.9356,"ARG_OF_PERICENTER":93.4814,"MEAN_ANOMALY":266.6363,"EPHEMERIS_TYPE":0,"CLASSIFICATION_TYPE":"U","NORAD_CAT_ID":65898,"ELEMENT_SET_NO":999,"REV_AT_EPOCH":2007,"BSTAR":0.00041703505,"MEAN_MOTION_DOT":0.00012028,"MEAN_MOTION_DDOT":0},{"OBJECT_NAME":"STARLINK-35272","OBJECT_ID":"2025-224T","EPOCH":"2026-02-06T07:25:29.539488","MEAN_MOTION":15.30216865,"ECCENTRICITY":0.00015628,"INCLINATION":53.1599,"RA_OF_ASC_NODE":156.8296,"ARG_OF_PERICENTER":88.5988,"MEAN_ANOMALY":271.5192,"EPHEMERIS_TYPE":0,"CLASSIFICATION_TYPE":"U","NORAD_CAT_ID":65899,"ELEMENT_SET_NO":999,"REV_AT_EPOCH":2006,"BSTAR":0.0013056925,"MEAN_MOTION_DOT":0.00038533,"MEAN_MOTION_DDOT":0},{"OBJECT_NAME":"STARLINK-35264","OBJECT_ID":"2025-224U","EPOCH":"2026-02-06T06:00:02.000160","MEAN_MOTION":15.30147287,"ECCENTRICITY":0.00010607,"INCLINATION":53.1586,"RA_OF_ASC_NODE":157.0697,"ARG_OF_PERICENTER":94.7204,"MEAN_ANOMALY":315.7312,"EPHEMERIS_TYPE":0,"CLASSIFICATION_TYPE":"U","NORAD_CAT_ID":65900,"ELEMENT_SET_NO":999,"REV_AT_EPOCH":587,"BSTAR":0.0023513524,"MEAN_MOTION_DOT":0.00069823,"MEAN_MOTION_DDOT":0}]
